[{"OBJECT_NAME":"SEEDS II (CO-66)","OBJECT_ID":"2008-021J","EPOCH":"2026-03-09T22:06:22.421376","MEAN_MOTION":15.29097236,"ECCENTRICITY":0.00014475,"INCLINATION":97.7519,"RA_OF_ASC_NODE":62.3611,"ARG_OF_PERICENTER":359.2618,"MEAN_ANOMALY":0.8619,"EPHEMERIS_TYPE":0,"CLASSIFICATION_TYPE":"U","NORAD_CAT_ID":32791,"ELEMENT_SET_NO":999,"REV_AT_EPOCH":97210,"BSTAR":0.00084213052,"MEAN_MOTION_DOT":0.00023758,"MEAN_MOTION_DDOT":0},{"OBJECT_NAME":"STARLINK-35404","OBJECT_ID":"2025-253T","EPOCH":"2026-03-09T09:59:38.111712","MEAN_MOTION":15.2759481,"ECCENTRICITY":0.00011728,"INCLINATION":42.9989,"RA_OF_ASC_NODE":213.9611,"ARG_OF_PERICENTER":281.8139,"MEAN_ANOMALY":78.2581,"EPHEMERIS_TYPE":0,"CLASSIFICATION_TYPE":"U","NORAD_CAT_ID":66336,"ELEMENT_SET_NO":999,"REV_AT_EPOCH":2020,"BSTAR":0.0010355503,"MEAN_MOTION_DOT":0.00028356,"MEAN_MOTION_DDOT":0}]
